{"type": "FeatureCollection", "features": [ {"type": "Feature", "properties": {"norad_id": 66815, "name": "STARLINK-35985", "group": "last-30-days", "lat": 40.447171546504414, "lon": -41.041501963308455, "alt_km": 299.75586634933825, "timestamp": "2025-12-12T14:39:16.772732+00:00", "meta": {"OBJECT_NAME": "STARLINK-35985", "OBJECT_ID": "2025-278AA", "EPOCH": "2025-12-12T05:18:09.877824", "MEAN_MOTION": 15.89266535, "ECCENTRICITY": 0.00024111, "INCLINATION": 42.9977, "RA_OF_ASC_NODE": 255.1773, "ARG_OF_PERICENTER": 272.8326, "MEAN_ANOMALY": 87.2272, "EPHEMERIS_TYPE": 0, "CLASSIFICATION_TYPE": "U", "NORAD_CAT_ID": 66815, "ELEMENT_SET_NO": 999, "REV_AT_EPOCH": 296, "BSTAR": -0.00059966213, "MEAN_MOTION_DOT": -0.00176778, "MEAN_MOTION_DDOT": 0}, "tle": {"line1": "1 66815U 25278AA  25346.22094766 -.00176778  00000+0 -59966-3 0  9991", "line2": "2 66815  42.9977 255.1773 0002411 272.8326  87.2272 15.89266535  2969"}}, "geometry": {"type": "Point", "coordinates": [-41.041501963308455, 40.447171546504414]}}, {"type": "Feature", "properties": {"norad_id": 66816, "name": "STARLINK-36098", "group": "last-30-days", "lat": 36.33688831421124, "lon": -55.07224164219358, "alt_km": 301.73767584812776, "timestamp": "2025-12-12T14:39:16.772756+00:00", "meta": {"OBJECT_NAME": "STARLINK-36098", "OBJECT_ID": "2025-278AB", "EPOCH": "2025-12-12T05:20:58.630848", "MEAN_MOTION": 15.89014598, "ECCENTRICITY": 0.00022526, "INCLINATION": 42.9975, "RA_OF_ASC_NODE": 255.1949, "ARG_OF_PERICENTER": 268.1474, "MEAN_ANOMALY": 91.9142, "EPHEMERIS_TYPE": 0, "CLASSIFICATION_TYPE": "U", "NORAD_CAT_ID": 66816, "ELEMENT_SET_NO": 999, "REV_AT_EPOCH": 175, "BSTAR": -0.0018351842, "MEAN_MOTION_DOT": -0.00513479, "MEAN_MOTION_DDOT": 0}, "tle": {"line1": "1 66816U 25278AB  25346.22290082 -.00513479  00000+0 -18352-2 0  9997", "line2": "2 66816  42.9975 255.1949 0002252 268.1474  91.9142 15.89014598  1752"}}, "geometry": {"type": "Point", "coordinates": [-55.07224164219358, 36.33688831421124]}}, {"type": "Feature", "properties": {"norad_id": 66817, "name": "STARLINK-35995", "group": "last-30-days", "lat": 38.55617028827203, "lon": -48.4126567580207, "alt_km": 300.1810135961796, "timestamp": "2025-12-12T14:39:16.772765+00:00", "meta": {"OBJECT_NAME": "STARLINK-35995", "OBJECT_ID": "2025-278AC", "EPOCH": "2025-12-12T05:19:39.526464", "MEAN_MOTION": 15.89240473, "ECCENTRICITY": 0.00024794, "INCLINATION": 42.9972, "RA_OF_ASC_NODE": 255.1877, "ARG_OF_PERICENTER": 271.499, "MEAN_ANOMALY": 88.56, "EPHEMERIS_TYPE": 0, "CLASSIFICATION_TYPE": "U", "NORAD_CAT_ID": 66817, "ELEMENT_SET_NO": 999, "REV_AT_EPOCH": 175, "BSTAR": -0.00070951273, "MEAN_MOTION_DOT": -0.0020806, "MEAN_MOTION_DDOT": 0}, "tle": {"line1": "1 66817U 25278AC  25346.22198526 -.00208060  00000+0 -70951-3 0  9999", "line2": "2 66817  42.9972 255.1877 0002479 271.4990  88.5600 15.89240473  1755"}}, "geometry": {"type": "Point", "coordinates": [-48.4126567580207, 38.55617028827203]}}, {"type": "Feature", "properties": {"norad_id": 66818, "name": "STARLINK-35994", "group": "last-30-days", "lat": 37.722610151830565, "lon": -51.09709745205582, "alt_km": 300.2318394030499, "timestamp": "2025-12-12T14:39:16.772775+00:00", "meta": {"OBJECT_NAME": "STARLINK-35994", "OBJECT_ID": "2025-278AD", "EPOCH": "2025-12-12T05:20:13.787520", "MEAN_MOTION": 15.89229288, "ECCENTRICITY": 0.00024027, "INCLINATION": 42.9975, "RA_OF_ASC_NODE": 255.191, "ARG_OF_PERICENTER": 269.4624, "MEAN_ANOMALY": 90.5975, "EPHEMERIS_TYPE": 0, "CLASSIFICATION_TYPE": "U", "NORAD_CAT_ID": 66818, "ELEMENT_SET_NO": 999, "REV_AT_EPOCH": 175, "BSTAR": -0.00061459231, "MEAN_MOTION_DOT": -0.00180744, "MEAN_MOTION_DDOT": 0}, "tle": {"line1": "1 66818U 25278AD  25346.22238180 -.00180744  00000+0 -61459-3 0  9992", "line2": "2 66818  42.9975 255.1910 0002402 269.4624  90.5975 15.89229288  1753"}}, "geometry": {"type": "Point", "coordinates": [-51.09709745205582, 37.722610151830565]}}, {"type": "Feature", "properties": {"norad_id": 66819, "name": "STARLINK-35989", "group": "last-30-days", "lat": 39.33800327137704, "lon": -45.627765378659895, "alt_km": 299.9108957588214, "timestamp": "2025-12-12T14:39:16.772786+00:00", "meta": {"OBJECT_NAME": "STARLINK-35989", "OBJECT_ID": "2025-278AE", "EPOCH": "2025-12-12T05:19:05.058048", "MEAN_MOTION": 15.89257275, "ECCENTRICITY": 0.00022719, "INCLINATION": 42.9975, "RA_OF_ASC_NODE": 255.184, "ARG_OF_PERICENTER": 273.9157, "MEAN_ANOMALY": 86.1458, "EPHEMERIS_TYPE": 0, "CLASSIFICATION_TYPE": "U", "NORAD_CAT_ID": 66819, "ELEMENT_SET_NO": 999, "REV_AT_EPOCH": 175, "BSTAR": -0.00074594376, "MEAN_MOTION_DOT": -0.00218629, "MEAN_MOTION_DDOT": 0}, "tle": {"line1": "1 66819U 25278AE  25346.22158632 -.00218629  00000+0 -74594-3 0  9994", "line2": "2 66819  42.9975 255.1840 0002271 273.9157  86.1458 15.89257275  1755"}}, "geometry": {"type": "Point", "coordinates": [-45.627765378659895, 39.33800327137704]}}, {"type": "Feature", "properties": {"norad_id": 66820, "name": "KOMPSAT-7", "group": "last-30-days", "lat": 8.834723631296603, "lon": -68.71602938839706, "alt_km": 576.7924501504976, "timestamp": "2025-12-12T14:39:16.772797+00:00", "meta": {"OBJECT_NAME": "KOMPSAT-7", "OBJECT_ID": "2025-279A", "EPOCH": "2025-12-12T06:36:15.621984", "MEAN_MOTION": 14.98947437, "ECCENTRICITY": 0.00086823, "INCLINATION": 97.6409, "RA_OF_ASC_NODE": 292.1508, "ARG_OF_PERICENTER": 227.0604, "MEAN_ANOMALY": 132.9891, "EPHEMERIS_TYPE": 0, "CLASSIFICATION_TYPE": "U", "NORAD_CAT_ID": 66820, "ELEMENT_SET_NO": 999, "REV_AT_EPOCH": 158, "BSTAR": 0.00037221835, "MEAN_MOTION_DOT": 4.449e-05, "MEAN_MOTION_DDOT": 0}, "tle": {"line1": "1 66820U 25279A   25346.27518081  .00004449  00000+0  37222-3 0  9998", "line2": "2 66820  97.6409 292.1508 0008682 227.0604 132.9891 14.98947437  1584"}}, "geometry": {"type": "Point", "coordinates": [-68.71602938839706, 8.834723631296603]}}, {"type": "Feature", "properties": {"norad_id": 66821, "name": "STARLINK-35966", "group": "last-30-days", "lat": -9.179041664286306, "lon": -164.16539508743634, "alt_km": 331.86217025810765, "timestamp": "2025-12-12T14:39:16.772807+00:00", "meta": {"OBJECT_NAME": "STARLINK-35966", "OBJECT_ID": "2025-280A", "EPOCH": "2025-12-12T06:00:00.999648", "MEAN_MOTION": 15.81875893, "ECCENTRICITY": 0.00037251, "INCLINATION": 69.9931, "RA_OF_ASC_NODE": 200.2407, "ARG_OF_PERICENTER": 279.5466, "MEAN_ANOMALY": 178.7441, "EPHEMERIS_TYPE": 0, "CLASSIFICATION_TYPE": "U", "NORAD_CAT_ID": 66821, "ELEMENT_SET_NO": 999, "REV_AT_EPOCH": 282, "BSTAR": -0.0094710787, "MEAN_MOTION_DOT": -0.01672446, "MEAN_MOTION_DDOT": 0}, "tle": {"line1": "1 66821U 25280A   25346.25001157 -.01672446  00000+0 -94711-2 0  9996", "line2": "2 66821  69.9931 200.2407 0003725 279.5466 178.7441 15.81875893  2822"}}, "geometry": {"type": "Point", "coordinates": [-164.16539508743634, -9.179041664286306]}}, {"type": "Feature", "properties": {"norad_id": 66822, "name": "STARLINK-35958", "group": "last-30-days", "lat": -7.388602831941905, "lon": -163.50010761364985, "alt_km": 331.83915196764065, "timestamp": "2025-12-12T14:39:16.772817+00:00", "meta": {"OBJECT_NAME": "STARLINK-35958", "OBJECT_ID": "2025-280B", "EPOCH": "2025-12-12T06:00:00.999648", "MEAN_MOTION": 15.81904557, "ECCENTRICITY": 0.00038485, "INCLINATION": 69.9931, "RA_OF_ASC_NODE": 200.2388, "ARG_OF_PERICENTER": 275.7442, "MEAN_ANOMALY": 184.4238, "EPHEMERIS_TYPE": 0, "CLASSIFICATION_TYPE": "U", "NORAD_CAT_ID": 66822, "ELEMENT_SET_NO": 999, "REV_AT_EPOCH": 282, "BSTAR": -0.0095526758, "MEAN_MOTION_DOT": -0.01687025, "MEAN_MOTION_DDOT": 0}, "tle": {"line1": "1 66822U 25280B   25346.25001157 -.01687025  00000+0 -95527-2 0  9992", "line2": "2 66822  69.9931 200.2388 0003848 275.7442 184.4238 15.81904557  2827"}}, "geometry": {"type": "Point", "coordinates": [-163.50010761364985, -7.388602831941905]}}, {"type": "Feature", "properties": {"norad_id": 66823, "name": "STARLINK-35957", "group": "last-30-days", "lat": -5.53572736411169, "lon": -162.8182252109558, "alt_km": 331.6424917185559, "timestamp": "2025-12-12T14:39:16.772826+00:00", "meta": {"OBJECT_NAME": "STARLINK-35957", "OBJECT_ID": "2025-280C", "EPOCH": "2025-12-12T06:00:00.999648", "MEAN_MOTION": 15.81925691, "ECCENTRICITY": 0.00037516, "INCLINATION": 69.9928, "RA_OF_ASC_NODE": 200.2363, "ARG_OF_PERICENTER": 277.0059, "MEAN_ANOMALY": 185.1188, "EPHEMERIS_TYPE": 0, "CLASSIFICATION_TYPE": "U", "NORAD_CAT_ID": 66823, "ELEMENT_SET_NO": 999, "REV_AT_EPOCH": 282, "BSTAR": -0.0096456948, "MEAN_MOTION_DOT": -0.01702559, "MEAN_MOTION_DDOT": 0}, "tle": {"line1": "1 66823U 25280C   25346.25001157 -.01702559  00000+0 -96457-2 0  9996", "line2": "2 66823  69.9928 200.2363 0003751 277.0059 185.1188 15.81925691  2823"}}, "geometry": {"type": "Point", "coordinates": [-162.8182252109558, -5.53572736411169]}}, {"type": "Feature", "properties": {"norad_id": 66824, "name": "STARLINK-35896", "group": "last-30-days", "lat": -3.615038205595423, "lon": -162.11611974411372, "alt_km": 331.7300022738327, "timestamp": "2025-12-12T14:39:16.772835+00:00", "meta": {"OBJECT_NAME": "STARLINK-35896", "OBJECT_ID": "2025-280D", "EPOCH": "2025-12-12T06:00:00.999648", "MEAN_MOTION": 15.81934315, "ECCENTRICITY": 0.00035699, "INCLINATION": 69.9928, "RA_OF_ASC_NODE": 200.2337, "ARG_OF_PERICENTER": 271.8253, "MEAN_ANOMALY": 192.338, "EPHEMERIS_TYPE": 0, "CLASSIFICATION_TYPE": "U", "NORAD_CAT_ID": 66824, "ELEMENT_SET_NO": 999, "REV_AT_EPOCH": 282, "BSTAR": -0.0096802984, "MEAN_MOTION_DOT": -0.01708212, "MEAN_MOTION_DDOT": 0}, "tle": {"line1": "1 66824U 25280D   25346.25001157 -.01708212  00000+0 -96803-2 0  9994", "line2": "2 66824  69.9928 200.2337 0003569 271.8253 192.3380 15.81934315  2827"}}, "geometry": {"type": "Point", "coordinates": [-162.11611974411372, -3.615038205595423]}}]}